GSAT0222 (GALILEO 26)   
1 43565U 18060B   22284.83177481 -.00000107  00000+0  00000+0 0  9992
2 43565  57.2141  18.0417 0003269 257.9648 102.0215  1.70476214 26299
GSAT0219 (GALILEO 23)   
1 43566U 18060C   22285.63890545 -.00000106  00000+0  00000+0 0  9994
2 43566  57.2150  18.0220 0002817 255.3362 104.6577  1.70476223 26283
GSAT0220 (GALILEO 24)   
1 43567U 18060D   22285.27252854 -.00000106  00000+0  00000+0 0  9990
2 43567  57.2151  18.0317 0002902 248.8879 111.1053  1.70476197 26267
BEIDOU-3 M13            
1 43622U 18072A   22285.80842876  .00000009  00000+0  00000+0 0  9994
2 43622  55.5483 107.4127 0004277 288.6811 249.7174  1.86231697 27630
BEIDOU-3 M14            
1 43623U 18072B   22285.42137747  .00000010  00000+0  00000+0 0  9999
2 43623  55.5502 107.4174 0002804 339.6321  29.5097  1.86231741 27630
GPS BIII-1              
1 43873U 18109A   22285.59998448  .00000025  00000+0  00000+0 0  9994
2 43873  55.1092 145.2705 0020924 188.0661   0.0415  2.00555194 28124
METEOR-M2 2             
1 44387U 19038A   22286.07903739  .00000083  00000+0  55779-4 0  9992
2 44387  98.7370 245.9886 0000758 354.3597   5.7577 14.23724445170140
GPS BIII-2              
1 44506U 19056A   22285.70714875 -.00000104  00000+0  00000+0 0  9992
2 44506  55.7287  24.3917 0029007 182.2092 343.4575  2.00558719 23129
BEIDOU-3 M23            
1 44542U 19061A   22285.25103072  .00000000  00000+0  00000+0 0  9993
2 44542  54.5556 228.1469 0008891 337.8647  22.0783  1.86231502 20762
BEIDOU-3 M24            
1 44543U 19061B   22285.67879998  .00000003  00000+0  00000+0 0  9990
2 44543  54.5530 228.1008 0006364 320.4797 237.7239  1.86231839 20765
BEIDOU-3 M21            
1 44793U 19078A   22285.26270668 -.00000108  00000+0  10000-3 0  9991
2 44793  54.9267 346.5962 0004905   9.8863 102.2720  1.86232298 19622
BEIDOU-3 M22            
1 44794U 19078B   22285.31366541 -.00000109  00000+0  00000+0 0  9990
2 44794  54.9009 346.5838 0002878   2.4638  55.7255  1.86232765 19629
ELEKTRO-L 3             
1 44903U 19095A   22285.83204495 -.00000101  00000+0  00000+0 0  9999
2 44903   0.0779  65.0749 0001625 135.4970 196.3997  1.00271642 10232
GPS BIII-3              
1 45854U 20041A   22285.73447583 -.00000025  00000+0  00000+0 0  9999
2 45854  55.6149  81.6574 0027383 178.4939 304.9398  2.00569341 17096
GPS BIII-4              
1 46826U 20078A   22285.84234932 -.00000010  00000+0  00000+0 0  9997
2 46826  54.4957 265.3292 0023845 191.6401 346.5527  2.00565321 14556
GSAT0223 (GALILEO 27)   
1 49809U 21116A   22281.63207334 -.00000107  00000+0  00000+0 0  9991
2 49809  57.2063  18.0278 0003522 192.3624 183.4738  1.70476045  5216
GSAT0224 (GALILEO 28)   
1 49810U 21116B   22284.30056890 -.00000107  00000+0  00000+0 0  9999
2 49810  57.2080  17.9537 0002919 173.4158 152.6229  1.70476310  5278
